IRIDIUM 144             
1 43249U 18030A   25287.29657416  .00000427  00000+0  14546-3 0  9993
2 43249  86.4002  33.1806 0002001  92.0374 268.1051 14.34219752394897
IRIDIUM 149             
1 43250U 18030B   25287.30290976  .00000541  00000+0  18608-3 0  9991
2 43250  86.4000  33.1478 0002020  92.2630 267.8797 14.34218398394911
IRIDIUM 157             
1 43251U 18030C   25287.32193756  .00000467  00000+0  15957-3 0  9993
2 43251  86.4002  33.1873 0002094 101.3659 258.7772 14.34218987394890
IRIDIUM 140             
1 43252U 18030D   25287.27119653  .00000115  00000+0  33932-4 0  9996
2 43252  86.4006  33.2220 0002126  90.5597 269.5843 14.34218539394946
IRIDIUM 145             
1 43253U 18030E   25287.32827853  .00000360  00000+0  12132-3 0  9991
2 43253  86.4002  33.1708 0001825  84.9870 275.1534 14.34219857394886
IRIDIUM 146             
1 43254U 18030F   25287.30925203  .00000387  00000+0  13108-3 0  9991
2 43254  86.4003  33.1918 0001893  89.9080 270.2333 14.34218846394895
IRIDIUM 148             
1 43255U 18030G   25287.27753841  .00000459  00000+0  15694-3 0  9997
2 43255  86.4005  33.2443 0001968  96.6768 263.4652 14.34219700394925
IRIDIUM 142             
1 43256U 18030H   25287.31559363  .00000288  00000+0  95632-4 0  9997
2 43256  86.4000  33.1263 0001783  84.4945 275.6454 14.34219246394893
